CUBEBUG-2 (LO-74)
1 39440U 13066AA  26178.11082438  .00004564  00000-0  42181-3 0  9995
2 39440  97.8903 127.1312 0057408 356.2386   3.8394 14.93840328678473
FUNCUBE-1 (AO-73)
1 39444U 13066AE  26178.19848782  .00007726  00000-0  47725-3 0  9991
2 39444  97.8270 149.8537 0036673 166.8988 193.3201 15.09604737681171
UWE-3
1 39446U 13066AG  26177.84042902  .00004205  00000-0  36187-3 0  9993
2 39446  97.8709 133.9799 0046794 288.3987  71.2149 14.97101122679020
UNISAT-6
1 40012U 14033C   26178.01660234  .00002676  00000-0  29005-3 0  9994
2 40012  97.7883 330.5559 0045670  37.6465 322.7933 14.88291418647624
DUCHIFAT-1
1 40021U 14033M   26178.12074073  .00123708  00000-0  11664-2 0  9997
2 40021  98.0447 238.6906 0001012 103.7667 256.3704 15.66663856657309
LILACSAT-2
1 40908U 15049K   26178.13957227  .00018715  00000-0  31484-3 0  9995
2 40908  97.4638 215.3605 0006460 201.3258 158.7726 15.51765050597292
CAS-2T & KS-1Q
1 41847U 16066G   26178.21399965  .00001654  00000-0  23813-3 0  9997
2 41847  98.3821 253.8357 0342893  99.1618 264.8526 14.44725784506249
FOX-1B (AO-91)
1 43017U 17073E   26177.86511221  .00006924  00000-0  30344-3 0  9990
2 43017  97.4694  44.8822 0148601 295.5005  63.0920 15.12844339466859
FUNCUBE-3 (EO-79)/QB50P1
1 40025U 14033R   26177.96968863  .00008965  00000-0  43898-3 0  9993
2 40025  98.0962 189.8021 0008801 180.7024 179.4197 15.18403426654518
FOX-1A (AO-85)
1 40967U 15058D   26177.80996918  .00002228  00000-0  20611-3 0  9995
2 40967  64.7748 249.0783 0131025  52.8500 308.4494 14.91008064115001
DIWATA-2B (PO-101)
1 43678U 18084H   26178.17291133  .00002213  00000-0  18063-3 0  9999
2 43678  98.1202  14.8168 0013011 138.8856 221.3349 15.00494087417717
ESHAIL-2
1 43700U 18090A   26178.16974251  .00000156  00000-0  00000+0 0  9992
2 43700   0.0097  15.5646 0002144 113.3726 233.2389  1.00270707 27770
ITASAT-1
1 43786U 18099AE  26178.09978420  .00007273  00000-0  34842-3 0  9991
2 43786  97.4026 229.4136 0011154 323.3169  36.7301 15.19174435414418
FOX-1CLIFF (AO-95)
1 43770U 18099N   26177.97399440  .00012361  00000-0  46988-3 0  9997
2 43770  97.4387 238.1847 0007112 318.8869  41.1833 15.26910459414717
JY1SAT (JO-97)
1 43803U 18099AX  26178.14272791  .00018364  00000-0  56045-3 0  9997
2 43803  97.4134 241.0127 0005113 218.5591 141.5287 15.33961591415153
UWE-4
1 43880U 18111E   26178.05078895  .00034426  00000-0  68805-3 0  9990
2 43880  97.5849 106.9000 0004316 290.5001  69.5785 15.46723335412303
CAS-6 (TO-108)
1 44881U 19093C   26178.20890713  .00000789  00000-0  95021-4 0  9996
2 44881  97.7532 250.1965 0014872  57.0951 303.1694 14.86533217352902
DOSAAF-85 (RS-44)
1 44909U 19096E   26178.16874640  .00000015  00000-0  58243-5 0  9994
2 44909  82.5226 333.0713 0218477 120.9258 241.3520 12.79749020303621
SALSAT (TUBSAT 22)
1 46495U 20068K   26177.95657953  .00008212  00000-0  28601-3 0  9999
2 46495  97.8848 181.6168 0007823 266.2984  93.7361 15.29932421316852
CAMSAT XW-3 (CAS-9)
1 50466U 21131B   26178.18978428  .00000570  00000-0  18965-3 0  9994
2 50466  98.4984 270.5254 0005352  73.5152 286.6624 14.41366420236554
ROBUSTA 1F (MTCUBE-2)
1 53109U 22080E   26177.67811985 -.00000003  00000-0  00000-0 0  9992
2 53109  70.1443 294.9444 0008985 287.5437  72.4241  6.42583228 92675
UMKA-1 (RS40S)
1 57172U 23091G   26178.16038756  .00006694  00000-0  30481-3 0  9991
2 57172  97.5052 236.8193 0014289  86.9277 273.3593 15.20930306165527
CUBESX-HSE-3 (RS42S)
1 57178U 23091N   26178.17161628  .00014367  00000-0  47419-3 0  9998
2 57178  97.5095 243.8856 0011500  63.4891 296.7528 15.31460655165950
MONITOR-3 (RS58S)
1 57180U 23091Q   26178.15278485  .00011011  00000-0  40432-3 0  9990
2 57180  97.5086 241.6723 0012722  69.8950 290.3656 15.28037026165810
MONITOR-4 (RS57S)
1 57182U 23091S   26178.19677009  .00011602  00000-0  42472-3 0  9993
2 57182  97.5080 241.6885 0012699  69.9430 290.3175 15.28122656165823
MONITOR-2 (RS39S)
1 57184U 23091U   26178.19421676  .00005326  00000-0  25733-3 0  9999
2 57184  97.5073 236.4124 0012679  80.8827 279.3842 15.18999949165470
SVYATOBOR-1 (RS60S)
1 57187U 23091X   26178.15300618  .00009606  00000-0  36707-3 0  9998
2 57187  97.5091 242.0255 0010467  64.2445 295.9873 15.26779304165834
VIZARD-METEO (RS38S)
1 57189U 23091Z   26178.17905312  .00018318  00000-0  51828-3 0  9995
2 57189  97.5095 247.8656 0007499  46.6215 313.5652 15.36335913166229
UTMN-2 (RS27S)
1 57203U 23091AP  26178.18377157  .00014101  00000-0  45402-3 0  9990
2 57203  97.5091 245.5441 0008613  53.3481 306.8551 15.32289467166072
POLYTECH UNIVERSE-3 (RS46S)
1 57191U 23091AB  26178.15421546  .00005541  00000-0  26555-3 0  9991
2 57191  97.5049 235.8769 0017079  95.3335 264.9849 15.19206106165466
