OBJECT_NAME,OBJECT_ID,EPOCH,MEAN_MOTION,ECCENTRICITY,INCLINATION,RA_OF_ASC_NODE,ARG_OF_PERICENTER,MEAN_ANOMALY,EPHEMERIS_TYPE,CLASSIFICATION_TYPE,NORAD_CAT_ID,ELEMENT_SET_NO,REV_AT_EPOCH,BSTAR,MEAN_MOTION_DOT,MEAN_MOTION_DDOT
CUBEBUG-2 (LO-74),2013-066AA,2026-06-27T02:39:35.226432,14.93840328,.0057408,97.8903,127.1312,356.2386,3.8394,0,U,39440,999,67847,.42181E-3,.4564E-4,0
FUNCUBE-1 (AO-73),2013-066AE,2026-06-27T04:45:49.347648,15.09604737,.0036673,97.8270,149.8537,166.8988,193.3201,0,U,39444,999,68117,.47725E-3,.7726E-4,0
UWE-3,2013-066AG,2026-06-26T20:10:13.067328,14.97101122,.00467941,97.8709,133.9799,288.3987,71.2149,0,U,39446,999,67902,.36186931E-3,.4205E-4,0
UNISAT-6,2014-033C,2026-06-27T00:23:54.442176,14.88291418,.004567,97.7883,330.5559,37.6465,322.7933,0,U,40012,999,64762,.29005E-3,.2676E-4,0
DUCHIFAT-1,2014-033M,2026-06-27T02:53:51.999072,15.66663856,.0001012,98.0447,238.6906,103.7667,256.3704,0,U,40021,999,65730,.11664E-2,.123708E-2,0
QB50P1,2014-033R,2026-06-26T23:16:21.097632,15.18403426,.0008801,98.0962,189.8021,180.7024,179.4197,0,U,40025,999,65451,.43898E-3,.8965E-4,0
LILACSAT-2,2015-049K,2026-06-27T03:20:59.044128,15.51765050,.000646,97.4638,215.3605,201.3258,158.7726,0,U,40908,999,59729,.31484E-3,.18715E-3,0
FOX-1A (AO-85),2015-058D,2026-06-26T19:26:21.337152,14.91008064,.01310245,64.7748,249.0783,52.8500,308.4494,0,U,40967,999,11500,.20610904E-3,.2228E-4,0
CAS-2T & KS-1Q,2016-066G,2026-06-27T05:08:09.569760,14.44725784,.0342893,98.3821,253.8357,99.1618,264.8526,0,U,41847,999,50624,.23813E-3,.1654E-4,0
RADFXSAT (FOX-1B),2017-073E,2026-06-26T20:45:45.694944,15.12844339,.01486006,97.4694,44.8822,295.5005,63.0920,0,U,43017,999,46685,.30343911E-3,.6924E-4,0
DIWATA-2B,2018-084H,2026-06-27T04:08:59.538912,15.00494087,.0013011,98.1202,14.8168,138.8856,221.3349,0,U,43678,999,41771,.18063E-3,.2213E-4,0
ES'HAIL 2,2018-090A,2026-06-27T04:04:25.752864,1.00270707,.0002144,0.0097,15.5646,113.3726,233.2389,0,U,43700,999,2777,0,.156E-5,0
FOX-1CLIFF (AO-95),2018-099N,2026-06-26T23:22:33.116160,15.26910459,.0007112,97.4387,238.1847,318.8869,41.1833,0,U,43770,999,41471,.46988E-3,.12361E-3,0
ITASAT,2018-099AE,2026-06-27T02:23:41.354880,15.19174435,.0011154,97.4026,229.4136,323.3169,36.7301,0,U,43786,999,41441,.34842E-3,.7273E-4,0
JY1SAT (JO-97),2018-099AX,2026-06-27T03:25:31.691424,15.33961591,.0005113,97.4134,241.0127,218.5591,141.5287,0,U,43803,999,41515,.56045E-3,.18364E-3,0
UWE-4,2018-111E,2026-06-27T01:13:08.165280,15.46723335,.0004316,97.5849,106.9000,290.5001,69.5785,0,U,43880,999,41230,.68805E-3,.34426E-3,0
TIANYAN 01,2019-093C,2026-06-27T05:00:49.576032,14.86533217,.0014872,97.7532,250.1965,57.0951,303.1694,0,U,44881,999,35290,.95021E-4,.789E-5,0
RS-44 & BREEZE-KM R/B,2019-096E,2026-06-27T04:02:59.688960,12.79749020,.0218477,82.5226,333.0713,120.9258,241.3520,0,U,44909,999,30362,.58243E-5,.15E-6,0
SALSAT,2020-068K,2026-06-26T22:57:28.471392,15.29932421,.0007823,97.8848,181.6168,266.2984,93.7361,0,U,46495,999,31685,.28601E-3,.8212E-4,0
XW-3 (CAS-9),2021-131B,2026-06-27T04:33:17.361792,14.41366420,.0005352,98.4984,270.5254,73.5152,286.6624,0,U,50466,999,23655,.18965E-3,.57E-5,0
GREENCUBE (IO-117),2022-080E,2026-06-26T16:16:29.555040,6.42583228,.00089846,70.1443,294.9444,287.5437,72.4241,0,U,53109,999,9267,0,-.3E-7,0
UMKA 1 (RS40S),2023-091G,2026-06-27T03:50:57.485184,15.20930306,.0014289,97.5052,236.8193,86.9277,273.3593,0,U,57172,999,16552,.30481E-3,.6694E-4,0
CUBESX-HSE 3 (RS42S),2023-091N,2026-06-27T04:07:07.646592,15.31460655,.00115,97.5095,243.8856,63.4891,296.7528,0,U,57178,999,16595,.47419E-3,.14367E-3,0
MONITOR-3 (RS58S),2023-091Q,2026-06-27T03:40:00.611040,15.28037026,.0012722,97.5086,241.6723,69.8950,290.3656,0,U,57180,999,16581,.40432E-3,.11011E-3,0
MONITOR-4 (RS57S),2023-091S,2026-06-27T04:43:20.935776,15.28122656,.0012699,97.5080,241.6885,69.9430,290.3175,0,U,57182,999,16582,.42472E-3,.11602E-3,0
MONITOR-2 (RS39S),2023-091U,2026-06-27T04:39:40.328064,15.18999949,.0012679,97.5073,236.4124,80.8827,279.3842,0,U,57184,999,16547,.25733E-3,.5326E-4,0
SVYATOBOR 1 (RS60S),2023-091X,2026-06-27T03:40:19.733952,15.26779304,.0010467,97.5091,242.0255,64.2445,295.9873,0,U,57187,999,16583,.36707E-3,.9606E-4,0
VIZARD-METEO (RS38S),2023-091Z,2026-06-27T04:17:50.189568,15.36335913,.0007499,97.5095,247.8656,46.6215,313.5652,0,U,57189,999,16622,.51828E-3,.18318E-3,0
POLYTECH-UNIVERSE 3 (RS46S),2023-091AB,2026-06-27T03:42:04.215744,15.19206106,.0017079,97.5049,235.8769,95.3335,264.9849,0,U,57191,999,16546,.26555E-3,.5541E-4,0
UTMN 2 (RS27S),2023-091AP,2026-06-27T04:24:37.863648,15.32289467,.0008613,97.5091,245.5441,53.3481,306.8551,0,U,57203,999,16607,.45402E-3,.14101E-3,0
